{
    "links": {
        "self": "http://www.neowsapp.com/rest/v1/neo/3647193?api_key=iIulBulltgU6a56xZRHN4H3l9WmuAYTsLGpBGhQ2"
    },
    "id": "3647193",
    "neo_reference_id": "3647193",
    "name": "(2013 RU9)",
    "designation": "2013 RU9",
    "nasa_jpl_url": "http://ssd.jpl.nasa.gov/sbdb.cgi?sstr=3647193",
    "absolute_magnitude_h": 23.9,
    "estimated_diameter": {
        "kilometers": {
            "estimated_diameter_min": 0.04411182,
            "estimated_diameter_max": 0.0986370281
        },
        "meters": {
            "estimated_diameter_min": 44.1118199997,
            "estimated_diameter_max": 98.6370281305
        },
        "miles": {
            "estimated_diameter_min": 0.0274098057,
            "estimated_diameter_max": 0.0612901888
        },
        "feet": {
            "estimated_diameter_min": 144.7238235278,
            "estimated_diameter_max": 323.6123073718
        }
    },
    "is_potentially_hazardous_asteroid": false,
    "close_approach_data": [
        {
            "close_approach_date": "2009-12-02",
            "close_approach_date_full": "2009-Dec-02 01:50",
            "epoch_date_close_approach": 1259718600000,
            "relative_velocity": {
                "kilometers_per_second": "14.9076584479",
                "kilometers_per_hour": "53667.5704124472",
                "miles_per_hour": "33346.941182112"
            },
            "miss_distance": {
                "astronomical": "0.2814462076",
                "lunar": "109.4825747564",
                "kilometers": "42103753.176537812",
                "miles": "26162059.0731013256"
            },
            "orbiting_body": "Earth"
        },
        {
            "close_approach_date": "2013-10-03",
            "close_approach_date_full": "2013-Oct-03 00:24",
            "epoch_date_close_approach": 1380759840000,
            "relative_velocity": {
                "kilometers_per_second": "8.1342623844",
                "kilometers_per_hour": "29283.3445838063",
                "miles_per_hour": "18195.5315276434"
            },
            "miss_distance": {
                "astronomical": "0.0856514192",
                "lunar": "33.3184020688",
                "kilometers": "12813269.874797104",
                "miles": "7961796.7067798752"
            },
            "orbiting_body": "Earth"
        },
        {
            "close_approach_date": "2017-08-26",
            "close_approach_date_full": "2017-Aug-26 03:44",
            "epoch_date_close_approach": 1503719040000,
            "relative_velocity": {
                "kilometers_per_second": "21.4339127354",
                "kilometers_per_hour": "77162.0858475746",
                "miles_per_hour": "47945.5193978999"
            },
            "miss_distance": {
                "astronomical": "0.4798960415",
                "lunar": "186.6795601435",
                "kilometers": "71791425.629831605",
                "miles": "44609123.333841949"
            },
            "orbiting_body": "Earth"
        }
    ],
    "orbital_data": {
        "orbit_id": "18",
        "orbit_determination_date": "2017-04-06 08:44:53",
        "first_observation_date": "2013-09-03",
        "last_observation_date": "2013-11-02",
        "data_arc_in_days": 60,
        "observations_used": 41,
        "orbit_uncertainty": "6",
        "minimum_orbit_intersection": ".0761096",
        "jupiter_tisserand_invariant": "3.210",
        "epoch_osculation": "2459000.5",
        "eccentricity": ".584294816514895",
        "semi_major_axis": "2.489972699409118",
        "inclination": "4.141979931216614",
        "ascending_node_longitude": "323.1944762193285",
        "orbital_period": "1435.126900267966",
        "perihelion_distance": "1.035094557880769",
        "perihelion_argument": "67.45380917414155",
        "aphelion_distance": "3.944850840937466",
        "perihelion_time": "2459453.989131168675",
        "mean_anomaly": "246.24275164082",
        "mean_motion": ".2508488970088854",
        "equinox": "J2000",
        "orbit_class": {
            "orbit_class_type": "AMO",
            "orbit_class_description": "Near-Earth asteroid orbits similar to that of 1221 Amor",
            "orbit_class_range": "1.017 AU < q (perihelion) < 1.3 AU"
        }
    },
    "is_sentry_object": false
}